0 FENGYUN 1C DEB
1 29955U 99025KD  13281.00000294  .00001695  00000-0  87399-3 0   772
2 29955 099.2710 040.4027 0009125 319.5388 131.2721 14.16571656347486
0 FENGYUN 1C DEB
1 29955U 99025KD  13283.82774613  .00001838  00000-0  94525-3 0   786
2 29955 099.2713 043.3472 0009234 310.5757 152.8517 14.16587157347886
0 FENGYUN 1C DEB
1 29955U 99025KD  13286.08461858  .00002264  00000-0  11588-2 0   793
2 29955 099.2708 045.6967 0009217 304.1456 142.3496 14.16593261348200
0 FENGYUN 1C DEB
1 29955U 99025KD  13288.14038459  .00002967  00000-0  15102-2 0   807
2 29955 099.2714 047.8374 0009290 297.8391 186.7617 14.16604727348498
0 FENGYUN 1C DEB
1 29955U 99025KD  13290.18712333  .00002777  00000-0  14152-2 0   818
2 29955 099.2720 049.9690 0009415 291.3742 185.4096 14.16612786348780
0 FENGYUN 1C DEB
1 29955U 99025KD  13292.28881846  .00002843  00000-0  14478-2 0   823
2 29955 099.2722 052.1583 0009530 285.1642 103.9817 14.16623045349087
0 FENGYUN 1C DEB
1 29955U 99025KD  13294.34428105  .00003009  00000-0  15308-2 0   836
2 29955 099.2721 054.2991 0009614 279.2172 146.7220 14.16634459349373
